#aV2021  4 11  0  0  0.00000000     288 DD+AD WGS84 FIT  NGA
## 2153      0.00000000   300.00000000 59315 0.0000000000000
+   31     1  2  3  4  5  6  7  8  9 10 12 13 14 15 16 17 18
+         19 20 21 22 23 24 25 26 27 28 29 30 31 32  0  0  0
+          0  0  0  0  0  0  0  0  0  0  0  0  0  0  0  0  0
+          0  0  0  0  0  0  0  0  0  0  0  0  0  0  0  0  0
+          0  0  0  0  0  0  0  0  0  0  0  0  0  0  0  0  0
++         2  2  2  2  2  2  2  2  2  2  2  2  2  2  2  2  2
++         2  2  2  2  2  2  2  2  2  2  2  2  2  2  0  0  0
++         0  0  0  0  0  0  0  0  0  0  0  0  0  0  0  0  0
++         0  0  0  0  0  0  0  0  0  0  0  0  0  0  0  0  0
++         0  0  0  0  0  0  0  0  0  0  0  0  0  0  0  0  0
%c cc cc ccc ccc cccc cccc cccc cccc ccccc ccccc ccccc ccccc
%c cc cc ccc ccc cccc cccc cccc cccc ccccc ccccc ccccc ccccc
%f  0.0000000  0.000000000  0.00000000000  0.000000000000000
%f  0.0000000  0.000000000  0.00000000000  0.000000000000000
%i    0    0    0    0      0      0      0      0         0
%i    0    0    0    0      0      0      0      0         0
/*      NGA, ST. LOUIS,MO.                                  
/*   EPHEMERIS COMPUTED FROM 2 DAYS OF DATA                 
/*   EPOCHA v6 SMOOTHER                                     
/*   G2139 IERS2010 SATIGS SATAPC                           
*  2021  4 11  1 35  0.00000000
P  1  12787.172428  13439.495593 -19393.193312    719.410972                    
V  1 -23922.600516   -221.997374 -15800.233153     -0.097973                    
P  2  12690.698534 -13993.849991  19343.632379   -594.535424                    
V  2  23200.359353    212.210926 -15561.060575     -0.034725                    
P  3  12899.310860  23277.100268    585.483355   -133.357776                    
V  3  -1799.828841   1910.709860 -31838.301371     -0.106823                    
P  4   4160.043751  17887.529092  19176.076011   -191.165365                    
V  4 -14678.729909  19478.902032 -15045.052240     -0.019776                    
P  5  -1211.433399 -22168.769007  14292.498766    -38.735490                    
V  5  11388.026439  14768.055677  23802.832166     -0.010845                    
P  6  23329.208965  -6549.576786  11009.954692      6.359334                    
V  6  13766.022002   2219.922822 -27945.911920      0.027326                    
P  7  23933.130062   7792.115512   9567.804690    118.260881                    
V  7 -11608.201777   1844.469772  28081.455302      0.116619                    
P  8  -2507.084660  22493.989278 -13649.431705    -17.058104                    
V  8 -10870.960890  13809.477579  25060.398973     -0.013820                    
P  9  13040.782589   8093.988041  21617.974264   -338.000392                    
V  9 -14217.568791  23675.269119   -310.526138     -0.027814                    
P 10 -16620.981487   -924.709743 -20640.291060    -99.464437                    
V 10 -11858.081656 -23582.806407  10287.043125     -0.077951                    
P 12  -9274.425228 -24879.560657  -2452.341641    -26.140685                    
V 12   3190.799511   1627.571523 -31742.882356     -0.050915                    
P 13  12000.299742 -22512.434490  -7279.296184    118.445728                    
V 13   7710.326249  -5432.851679  30186.458216      0.045906                    
P 14  16927.169740   2146.453545 -20372.269024     96.879308                    
V 14  10243.392465  23752.425343  10998.521256     -0.024433                    
P 15   -754.372791 -22673.886419 -13878.691501   -157.023635                    
V 15  10133.318873 -14298.419580  23773.260267      0.026009                    
P 16  -3670.389016  20072.585089  16497.852080   -307.780706                    
V 16 -10188.490701 -19110.243261  21126.715657     -0.059104                    
P 17  19138.798983  -8915.891467 -15685.713119    424.386953                    
V 17 -10628.244734  17792.044882 -22474.541013      0.061130                    
P 18 -25430.523003  -5299.226436   5682.596691    351.615007                    
V 18   7330.356458  -2070.109305  30774.680294      0.000858                    
P 19  19780.954834 -15037.915598  -9516.868600    -14.571396                    
V 19  -5618.746991  10433.917793 -29134.975114      0.049914                    
P 20 -18206.388915 -18974.548254  -4621.534434    523.302282                    
V 20   -834.057691  -6616.296639  30319.050227     -0.003901                    
P 21   4816.199072  14604.948869 -20986.512333    110.060271                    
V 21 -28273.414751   1475.204190  -4827.539501      0.028501                    
P 22   8319.653830  23779.603267  -8499.820551   -640.724350                    
V 22  -8849.025859  -7379.992884 -28460.160193      0.086821                    
P 23 -18607.533546 -11880.910434 -14817.826786    114.135758                    
V 23  -7552.361399 -17285.867711  23329.586357     -0.019570                    
P 24  -7478.033530 -15100.949020 -20847.336737     -0.081512                    
V 24  25892.692952  -1650.517803  -7794.868731     -0.004989                    
P 25 -17087.984364 -18165.405929   9258.052754    116.206735                    
V 25  -3588.847857 -11746.146053 -28579.245886      0.072854                    
P 26 -10146.877968  12704.843079  20904.868746     70.472988                    
V 26 -14390.791017 -22613.760829   7004.102159      0.051851                    
P 27 -11818.611739  23340.422245  -3375.624343   -110.489879                    
V 27  -4377.031559   2124.226262  31960.317149     -0.068869                    
P 28  15472.672435   -120.864544 -21021.252623    588.643362                    
V 28  10166.627600  26063.766931   7334.767222     -0.058320                    
P 29 -12239.192014  -8114.397994  22085.491575   -327.826815                    
V 29  16493.743695 -22731.989761    746.190964     -0.067027                    
P 30  26445.053744   -950.945261  -3403.117224   -411.122405                    
V 30   4169.735926   3568.806986  30683.700136     -0.052809                    
P 31 -21981.096698   7904.357113  12983.942009   -110.865810                    
V 31 -16306.114221  -3012.429123 -25152.816489     -0.022368                    
P 32 -18940.470380  11136.040114 -14692.857429     22.076967                    
V 32   7918.518844 -17337.233187 -23346.543585      0.000718                    
EOF
